start=new Date('2022-01-13T00:00:00.000Z').valueOf();
sats=[{"ARG_OF_PERICENTER":"31.7337","CENTER_NAME":"EARTH","TLE_LINE1":"1 49767U 21115AV  22012.66667824  .00039093  00000-0  95627-3 0  9991","DECAY_DATE":null,"TLE_LINE2":"2 49767  53.2170 125.4512 0002507  31.7337 147.2546 15.40437527  7533","TIME_SYSTEM":"UTC","SEMIMAJOR_AXIS":"6822.954","COUNTRY_CODE":"US","RA_OF_ASC_NODE":"125.4512","APOAPSIS":"446.530","ECCENTRICITY":"0.00025070","GP_ID":"193709941","OBJECT_TYPE":"PAYLOAD","EPHEMERIS_TYPE":"0","OBJECT_NAME":"STARLINK-3192","NORAD_CAT_ID":"49767","INCLINATION":"53.2170","MEAN_MOTION_DOT":"0.00039093","CLASSIFICATION_TYPE":"U","RCS_SIZE":"LARGE","ELEMENT_SET_NO":"999","OBJECT_ID":"2021-115AV","FILE":"3270607","PERIAPSIS":"443.109","EPOCH":"2022-01-12T16:00:00.999936","REV_AT_EPOCH":"753","MEAN_MOTION":"15.40437527","REF_FRAME":"TEME","PERIOD":"93.480","LAUNCH_DATE":"2021-12-02","SITE":"AFETR","MEAN_ELEMENT_THEORY":"SGP4","BSTAR":"0.00095627000000","MEAN_MOTION_DDOT":"0.0000000000000","MEAN_ANOMALY":"147.2546"},{"ARG_OF_PERICENTER":"22.7049","CENTER_NAME":"EARTH","TLE_LINE1":"1 49768U 21115AW  22012.58334491  .00009396  00000-0  23814-3 0  9996","DECAY_DATE":null,"TLE_LINE2":"2 49768  53.2163 125.8492 0002820  22.7049  49.7190 15.40442791  3654","SEMIMAJOR_AXIS":"6822.939","TIME_SYSTEM":"UTC","COUNTRY_CODE":"US","RA_OF_ASC_NODE":"125.8492","APOAPSIS":"446.728","GP_ID":"193735681","ECCENTRICITY":"0.00028200","OBJECT_TYPE":"PAYLOAD","NORAD_CAT_ID":"49768","EPHEMERIS_TYPE":"0","OBJECT_NAME":"STARLINK-3196","INCLINATION":"53.2163","MEAN_MOTION_DOT":"0.00009396","CLASSIFICATION_TYPE":"U","RCS_SIZE":"LARGE","ELEMENT_SET_NO":"999","OBJECT_ID":"2021-115AW","FILE":"3270709","PERIAPSIS":"442.879","EPOCH":"2022-01-12T14:00:01.000224","REV_AT_EPOCH":"365","MEAN_MOTION":"15.40442791","REF_FRAME":"TEME","PERIOD":"93.480","LAUNCH_DATE":"2021-12-02","SITE":"AFETR","MEAN_ELEMENT_THEORY":"SGP4","BSTAR":"0.00023814000000","MEAN_MOTION_DDOT":"0.0000000000000","MEAN_ANOMALY":"49.7190"},{"RCS_SIZE":"LARGE","CLASSIFICATION_TYPE":"U","ELEMENT_SET_NO":"999","RA_OF_ASC_NODE":"125.4570","COUNTRY_CODE":"US","OBJECT_NAME":"STARLINK-3208","OBJECT_TYPE":"PAYLOAD","EPHEMERIS_TYPE":"0","NORAD_CAT_ID":"49769","INCLINATION":"53.2169","MEAN_MOTION_DOT":"0.00039811","APOAPSIS":"446.757","GP_ID":"193709872","ECCENTRICITY":"0.00028350","TLE_LINE2":"2 49769  53.2169 125.4570 0002835  18.6005 157.2355 15.40436349  7537","TIME_SYSTEM":"UTC","SEMIMAJOR_AXIS":"6822.958","CENTER_NAME":"EARTH","ARG_OF_PERICENTER":"18.6005","TLE_LINE1":"1 49769U 21115AX  22012.66667824  .00039811  00000-0  97356-3 0  9992","DECAY_DATE":null,"MEAN_MOTION_DDOT":"0.0000000000000","MEAN_ANOMALY":"157.2355","LAUNCH_DATE":"2021-12-02","MEAN_ELEMENT_THEORY":"SGP4","BSTAR":"0.00097356000000","SITE":"AFETR","REV_AT_EPOCH":"753","REF_FRAME":"TEME","PERIOD":"93.480","MEAN_MOTION":"15.40436349","FILE":"3270603","OBJECT_ID":"2021-115AX","EPOCH":"2022-01-12T16:00:00.999936","PERIAPSIS":"442.888"},{"BSTAR":"0.00019091000000","MEAN_ELEMENT_THEORY":"SGP4","SITE":"AFETR","LAUNCH_DATE":"2021-12-02","MEAN_ANOMALY":"51.3853","MEAN_MOTION_DDOT":"0.0000000000000","EPOCH":"2022-01-12T14:00:01.000224","PERIAPSIS":"442.874","FILE":"3270709","OBJECT_ID":"2021-115AY","PERIOD":"93.480","REF_FRAME":"TEME","MEAN_MOTION":"15.40442044","REV_AT_EPOCH":"365","MEAN_MOTION_DOT":"0.00007450","INCLINATION":"53.2163","NORAD_CAT_ID":"49770","OBJECT_TYPE":"PAYLOAD","OBJECT_NAME":"STARLINK-3191","EPHEMERIS_TYPE":"0","ECCENTRICITY":"0.00028310","GP_ID":"193736185","APOAPSIS":"446.737","RA_OF_ASC_NODE":"125.8513","COUNTRY_CODE":"US","ELEMENT_SET_NO":"999","RCS_SIZE":"LARGE","CLASSIFICATION_TYPE":"U","DECAY_DATE":null,"TLE_LINE1":"1 49770U 21115AY  22012.58334491  .00007450  00000-0  19091-3 0  9990","CENTER_NAME":"EARTH","ARG_OF_PERICENTER":"19.9812","SEMIMAJOR_AXIS":"6822.941","TIME_SYSTEM":"UTC","TLE_LINE2":"2 49770  53.2163 125.8513 0002831  19.9812  51.3853 15.40442044  3655"},{"TLE_LINE2":"2 49771  53.2168 125.4630 0002464  22.1122 150.5604 15.40439119  7535","SEMIMAJOR_AXIS":"6822.949","TIME_SYSTEM":"UTC","ARG_OF_PERICENTER":"22.1122","CENTER_NAME":"EARTH","TLE_LINE1":"1 49771U 21115AZ  22012.66667824  .00029239  00000-0  71857-3 0  9996","DECAY_DATE":null,"CLASSIFICATION_TYPE":"U","RCS_SIZE":"LARGE","ELEMENT_SET_NO":"999","COUNTRY_CODE":"US","RA_OF_ASC_NODE":"125.4630","APOAPSIS":"446.496","ECCENTRICITY":"0.00024640","GP_ID":"193711524","OBJECT_NAME":"STARLINK-3201","OBJECT_TYPE":"PAYLOAD","EPHEMERIS_TYPE":"0","NORAD_CAT_ID":"49771","MEAN_MOTION_DOT":"0.00029239","INCLINATION":"53.2168","REV_AT_EPOCH":"753","MEAN_MOTION":"15.40439119","REF_FRAME":"TEME","PERIOD":"93.480","OBJECT_ID":"2021-115AZ","FILE":"3270672","PERIAPSIS":"443.133","EPOCH":"2022-01-12T16:00:00.999936","MEAN_MOTION_DDOT":"0.0000000000000","MEAN_ANOMALY":"150.5604","LAUNCH_DATE":"2021-12-02","SITE":"AFETR","MEAN_ELEMENT_THEORY":"SGP4","BSTAR":"0.00071857000000"},{"REV_AT_EPOCH":"678","REF_FRAME":"TEME","PERIOD":"91.533","MEAN_MOTION":"15.73195964","FILE":"3270655","OBJECT_ID":"2021-125A","EPOCH":"2022-01-12T16:00:00.999936","PERIAPSIS":"349.048","MEAN_MOTION_DDOT":"0.0000000000000","MEAN_ANOMALY":"312.4552","LAUNCH_DATE":"2021-12-18","MEAN_ELEMENT_THEORY":"SGP4","BSTAR":"0.00021278000000","SITE":"AFWTR","TLE_LINE2":"2 50156  53.2185 241.2000 0001075 115.6661 312.4552 15.73195964  6784","TIME_SYSTEM":"UTC","SEMIMAJOR_AXIS":"6727.907","CENTER_NAME":"EARTH","ARG_OF_PERICENTER":"115.6661","TLE_LINE1":"1 50156U 21125A   22012.66667824  .00029341  00000-0  21278-3 0  9992","DECAY_DATE":null,"RCS_SIZE":"LARGE","CLASSIFICATION_TYPE":"U","ELEMENT_SET_NO":"999","RA_OF_ASC_NODE":"241.2000","COUNTRY_CODE":"US","OBJECT_NAME":"STARLINK-3317","OBJECT_TYPE":"PAYLOAD","NORAD_CAT_ID":"50156","EPHEMERIS_TYPE":"0","INCLINATION":"53.2185","MEAN_MOTION_DOT":"0.00029341","APOAPSIS":"350.495","ECCENTRICITY":"0.00010750","GP_ID":"193710907"},{"MEAN_MOTION_DDOT":"0.0000000000000","MEAN_ANOMALY":"209.3559","LAUNCH_DATE":"2021-12-18","MEAN_ELEMENT_THEORY":"SGP4","BSTAR":"-0.00034343000000","SITE":"AFWTR","REV_AT_EPOCH":"416","REF_FRAME":"TEME","PERIOD":"91.531","MEAN_MOTION":"15.73233048","FILE":"3270454","OBJECT_ID":"2021-125B","EPOCH":"2022-01-12T14:00:01.000224","PERIAPSIS":"348.939","RCS_SIZE":"LARGE","CLASSIFICATION_TYPE":"U","ELEMENT_SET_NO":"999","RA_OF_ASC_NODE":"241.6112","COUNTRY_CODE":"US","OBJECT_TYPE":"PAYLOAD","OBJECT_NAME":"STARLINK-3313","NORAD_CAT_ID":"50157","EPHEMERIS_TYPE":"0","MEAN_MOTION_DOT":"-0.00048607","INCLINATION":"53.2185","APOAPSIS":"350.393","ECCENTRICITY":"0.00010800","GP_ID":"193706151","TLE_LINE2":"2 50157  53.2185 241.6112 0001080 107.4267 209.3559 15.73233048  4167","SEMIMAJOR_AXIS":"6727.801","TIME_SYSTEM":"UTC","CENTER_NAME":"EARTH","ARG_OF_PERICENTER":"107.4267","DECAY_DATE":null,"TLE_LINE1":"1 50157U 21125B   22012.58334491 -.00048607  00000-0 -34343-3 0  9990"},{"REV_AT_EPOCH":"416","MEAN_MOTION":"15.73180258","REF_FRAME":"TEME","PERIOD":"91.534","OBJECT_ID":"2021-125C","FILE":"3270454","PERIAPSIS":"349.115","EPOCH":"2022-01-12T14:00:01.000224","MEAN_MOTION_DDOT":"0.0000000000000","MEAN_ANOMALY":"223.0976","LAUNCH_DATE":"2021-12-18","SITE":"AFWTR","MEAN_ELEMENT_THEORY":"SGP4","BSTAR":"0.00040368000000","TLE_LINE2":"2 50158  53.2180 241.6034 0001043  96.5714 223.0976 15.73180258  4160","TIME_SYSTEM":"UTC","SEMIMAJOR_AXIS":"6727.951","ARG_OF_PERICENTER":"96.5714","CENTER_NAME":"EARTH","DECAY_DATE":null,"TLE_LINE1":"1 50158U 21125C   22012.58334491  .00056366  00000-0  40368-3 0  9994","CLASSIFICATION_TYPE":"U","RCS_SIZE":"LARGE","ELEMENT_SET_NO":"999","COUNTRY_CODE":"US","RA_OF_ASC_NODE":"241.6034","APOAPSIS":"350.518","ECCENTRICITY":"0.00010430","GP_ID":"193706621","OBJECT_NAME":"STARLINK-3309","OBJECT_TYPE":"PAYLOAD","EPHEMERIS_TYPE":"0","NORAD_CAT_ID":"50158","INCLINATION":"53.2180","MEAN_MOTION_DOT":"0.00056366"},{"DECAY_DATE":null,"TLE_LINE1":"1 50159U 21125D   22012.58334491  .00050565  00000-0  36283-3 0  9991","ARG_OF_PERICENTER":"100.0985","CENTER_NAME":"EARTH","SEMIMAJOR_AXIS":"6727.951","TIME_SYSTEM":"UTC","TLE_LINE2":"2 50159  53.2186 241.6035 0001044 100.0985 220.4748 15.73180517  3738","GP_ID":"193736230","ECCENTRICITY":"0.00010440","APOAPSIS":"350.518","MEAN_MOTION_DOT":"0.00050565","INCLINATION":"53.2186","OBJECT_TYPE":"PAYLOAD","NORAD_CAT_ID":"50159","OBJECT_NAME":"STARLINK-3297","EPHEMERIS_TYPE":"0","COUNTRY_CODE":"US","RA_OF_ASC_NODE":"241.6035","ELEMENT_SET_NO":"999","CLASSIFICATION_TYPE":"U","RCS_SIZE":"LARGE","PERIAPSIS":"349.113","EPOCH":"2022-01-12T14:00:01.000224","OBJECT_ID":"2021-125D","FILE":"3270709","MEAN_MOTION":"15.73180517","PERIOD":"91.534","REF_FRAME":"TEME","REV_AT_EPOCH":"373","SITE":"AFWTR","BSTAR":"0.00036283000000","MEAN_ELEMENT_THEORY":"SGP4","LAUNCH_DATE":"2021-12-18","MEAN_ANOMALY":"220.4748","MEAN_MOTION_DDOT":"0.0000000000000"},{"REV_AT_EPOCH":"373","PERIOD":"91.529","REF_FRAME":"TEME","MEAN_MOTION":"15.73277219","FILE":"3270709","OBJECT_ID":"2021-125E","EPOCH":"2022-01-12T14:00:01.000224","PERIAPSIS":"348.819","MEAN_MOTION_DDOT":"0.0000000000000","MEAN_ANOMALY":"211.7464","LAUNCH_DATE":"2021-12-18","BSTAR":"-0.00038641000000","MEAN_ELEMENT_THEORY":"SGP4","SITE":"AFWTR","TLE_LINE2":"2 50160  53.2168 241.6061 0001072 106.8717 211.7464 15.73277219  3731","SEMIMAJOR_AXIS":"6727.675","TIME_SYSTEM":"UTC","CENTER_NAME":"EARTH","ARG_OF_PERICENTER":"106.8717","TLE_LINE1":"1 50160U 21125E   22012.58334491 -.00054676  00000-0 -38641-3 0  9992","DECAY_DATE":null,"RCS_SIZE":"LARGE","CLASSIFICATION_TYPE":"U","ELEMENT_SET_NO":"999","RA_OF_ASC_NODE":"241.6061","COUNTRY_CODE":"US","INCLINATION":"53.2168","MEAN_MOTION_DOT":"-0.00054676","EPHEMERIS_TYPE":"0","OBJECT_TYPE":"PAYLOAD","OBJECT_NAME":"STARLINK-3288","NORAD_CAT_ID":"50160","ECCENTRICITY":"0.00010720","GP_ID":"193736980","APOAPSIS":"350.261"}];
